{
  "fetched_at": "2026-06-17T14:48:01.306218+00:00",
  "satellites": {
    "57166": {
      "name": "Meteor M2-3",
      "tle_line1": "1 57166U 23091A   26168.16873390  .00000006  00000+0  21477-4 0  9990",
      "tle_line2": "2 57166  98.6090 223.1474 0004359 155.4354 204.7033 14.24046815154510"
    },
    "59051": {
      "name": "Meteor M2-4",
      "tle_line1": "1 59051U 24039A   26168.18343336 -.00000002  00000+0  18952-4 0  9993",
      "tle_line2": "2 59051  98.7010 127.4815 0007293 160.9601 199.1851 14.22429507119268"
    },
    "38771": {
      "name": "MetOp-B",
      "tle_line1": "1 38771U 12049A   26168.18962497  .00000089  00000+0  60599-4 0  9990",
      "tle_line2": "2 38771  98.6505 219.6888 0002239  19.7345 340.3919 14.21432760713266"
    },
    "43689": {
      "name": "MetOp-C",
      "tle_line1": "1 43689U 18087A   26168.13843457  .00000090  00000+0  60753-4 0  9995",
      "tle_line2": "2 43689  98.6645 227.7429 0001764 129.4848 230.6485 14.21512138394829"
    },
    "60543": {
      "name": "Arctic Weather Satellite",
      "tle_line1": "1 60543U 24149CD  26168.08650978  .00000728  00000+0  81428-4 0  9997",
      "tle_line2": "2 60543  97.6801 238.5551 0003651 104.5839 255.5784 14.89806478 99284"
    }
  }
}